# From MPC102099
P/2016 P1 (PANSTARRS),e,24.4223,319.5388,270.4546,3.199141,0.1722479,0.28938481,92.4520,11/30.0/2022,2000,g 15.0,4.0
# From MPEC 2022-M21
C/2016 Q2 (PANSTARRS),h,05/12.3447/2021,109.3835,322.3077,84.5556,1.002789,7.081951,2000,6.0,4.0
# From MPC102955
C/2016 Q4 (Kowalski),e,7.2469,271.2959,99.6620,17.01750,0.0140398,0.58301474,24.7606,11/30.0/2022,2000,g  7.0,4.0
# From MPEC 2021-N06
C/2016 R2 (PANSTARRS),e,58.3213,80.5168,33.0957,476.3985,0.0000948,0.99454910,0.0000,05/09.1686/2018,2000,g  7.0,4.0
# From MPEC 2022-K19
P/2016 R4 (Gibbs),e,10.8776,168.2615,174.1255,5.332552,0.0800390,0.47624471,185.6795,11/30.0/2022,2000,g 12.5,4.0
# From MPC105543
P/2016 S1 (PANSTARRS),e,94.7279,227.6463,273.2582,8.276121,0.0413965,0.71031342,86.2865,11/30.0/2022,2000,g 12.0,4.0
# From MPC106345
P/2016 WM48 (Lemmon),e,117.5756,59.9319,36.1376,8.168876,0.0422144,0.78348717,88.8886,11/30.0/2022,2000,g 15.0,4.0
# From MPEC 2021-P47
C/2016 X1 (Lemmon),e,26.4580,256.3463,224.4768,1340,0.0000201,0.99436145,0.0000,04/27.8415/2019,2000,g  6.0,4.0
# From MPC114598
C/2017 AB5 (PANSTARRS),e,32.4648,42.5970,78.2819,2619,0.0000074,0.99648519,0.0000,02/14.5210/2018,2000,g  5.5,4.0
# From MPEC 2022-OB6
C/2017 B3 (LINEAR),h,02/01.5480/2019,54.1587,2.1750,284.8305,1.000361,3.929043,2000,6.0,4.0
# From MPC103847
P/2017 B4 (PANSTARRS),e,20.0584,121.4578,11.0197,4.410520,0.1064068,0.36495152,359.9130,01/05.0/2017,2000,g 14.5,4.0
# From MPEC 2022-OB6
P/2017 D1 (Fuls),e,20.7663,82.1883,7.9532,4.827966,0.0929090,0.43689592,218.4317,11/30.0/2022,2000,g 14.0,4.0
# From MPEC 2022-OB6
P/2017 D4 (PANSTARRS),e,10.5478,264.9434,212.1377,7.549158,0.0475178,0.62890607,108.1933,11/30.0/2022,2000,g 13.0,4.0
# From MPC111769
C/2017 F1 (Lemmon),h,11/27.8690/2017,146.4686,158.7865,64.7221,1.001352,4.500505,2000,10.5,4.0
# From MPC114598
C/2017 F2 (PANSTARRS),h,11/25.5048/2017,42.5592,38.7091,134.8777,1.001722,6.922923,2000,7.5,4.0
# From MPC104794
P/2017 G1 (PANSTARRS),e,4.7833,249.6718,224.3622,7.275922,0.0502195,0.65365595,120.9156,11/30.0/2022,2000,g 13.5,4.0
# From MPC108595
P/2017 G2 (PANSTARRS),e,47.9597,79.8376,105.4183,8.051857,0.0431380,0.64753629,86.2657,11/30.0/2022,2000,g 13.0,4.0
# From MPC115882
C/2017 K1 (PANSTARRS),h,03/17.8114/2018,154.0219,225.7331,4.4152,1.003398,7.282806,2000,7.0,4.0
# From MPEC 2022-V95
C/2017 K2 (PANSTARRS),h,12/19.6860/2022,87.5631,88.2353,236.1998,1.000815,1.796887,2000,1.5,4.0
# From MPEC 2021-N06
P/2017 K3 (Gasparovic),e,4.2733,354.2938,253.4249,5.584841,0.0746772,0.57916888,150.2331,11/30.0/2022,2000,g 14.5,4.0
# From MPC114598
C/2017 K4 (ATLAS),e,16.6606,298.9199,15.3523,28.70170,0.0064098,0.90724438,11.4537,11/30.0/2022,2000,g 10.0,4.0
# From MPEC 2021-P47
C/2017 K5 (PANSTARRS),h,03/27.3890/2020,82.2517,102.3865,172.0695,1.005213,7.684142,2000,5.0,4.0
# From MPC114599
C/2017 K6 (Jacques),e,57.2186,84.8851,303.8239,1255,0.0000222,0.99841029,0.0000,01/04.0693/2018,2000,g 11.0,4.0
# From MPEC 2022-OB6
C/2017 M4 (ATLAS),h,01/17.9773/2019,105.6398,65.9647,167.6083,1.001261,3.251943,2000,6.0,4.0
# From MPC118841
C/2017 M5 (TOTAS),h,06/04.2038/2018,15.8620,216.2888,92.8685,1.005077,6.005202,2000,6.5,4.0
# From MPC114599
P/2017 P1 (PANSTARRS),e,7.6895,221.3652,122.7117,7.912867,0.0442796,0.31087427,71.7880,11/30.0/2022,2000,g 10.0,4.0
# From MPC114599
C/2017 P2 (PANSTARRS),e,50.0490,165.4642,132.5250,2542,0.0000077,0.99902528,0.0000,12/05.7444/2017,2000,g 10.0,4.0
# From MPC114599
C/2017 S3 (PANSTARRS),h,08/16.6896/2018,99.2015,171.3001,255.8115,1.000092,0.205090,2000,12.9,4.0
# From MPC109591
C/2017 S6 (Catalina),h,02/26.2113/2018,152.8640,131.1286,135.0326,1.000976,1.551934,2000,12.5,4.0
# From MPEC 2022-OB6
P/2017 S8 (PANSTARRS),e,29.8486,191.5190,254.8533,2.777878,0.2128798,0.39076905,16.1368,11/30.0/2022,2000,g 16.0,4.0
# From MPC107050
P/2017 S9 (PANSTARRS),e,14.1406,146.2225,237.5552,3.156843,0.1757214,0.30579921,344.3310,11/30.0/2022,2000,g 17.0,4.0
# From MPC114600
C/2017 T1 (Heinze),e,96.9165,102.5755,97.0364,10651,0.0000009,0.99994498,0.0000,02/20.6155/2018,2000,g 14.5,4.0
# From MPEC 2021-Y10
C/2017 T2 (PANSTARRS),e,57.2595,64.4079,92.9334,1615,0.0000152,0.99900049,0.0000,05/04.8023/2020,2000,g  5.0,4.0
# From MPC114600
C/2017 T3 (ATLAS),e,88.2447,230.2200,246.8026,1230,0.0000229,0.99933033,0.0000,07/19.1596/2018,2000,g 10.0,4.0
# From MPC115882
P/2017 TW13 (Lemmon),e,44.8498,322.2633,119.9121,7.135787,0.0517060,0.71021010,83.8812,11/30.0/2022,2000,g 15.0,2.0
# From MPEC 2022-K19
P/2017 U3 (PANSTARRS),e,15.9184,165.1087,296.2986,4.925158,0.0901725,0.09956380,119.7370,11/30.0/2022,2000,g 11.0,4.0
# From MPEC 2021-P47
C/2017 U4 (PANSTARRS),e,158.2029,245.9124,158.9750,20109,0.0000003,0.99961593,0.0000,09/21.7348/2018,2000,g  7.0,4.0
# From MPC114600
C/2017 U5 (PANSTARRS),e,18.9771,163.0849,262.0023,16.91099,0.0141726,0.74483125,25.6004,11/30.0/2022,2000,g 12.0,4.0
# From MPEC 2022-PB4
C/2017 U7 (PANSTARRS),h,09/15.1637/2019,142.6107,276.2637,326.4165,1.001490,6.427850,2000,8.3,2.0
# From MPC114601
P/2017 W3 (Gibbs),e,18.1677,210.2153,327.8221,7.832394,0.0449637,0.50635144,78.1093,11/30.0/2022,2000,g 10.5,4.0
# From MPEC 2021-R75
C/2017 X1 (PANSTARRS),e,31.3338,251.1532,283.1510,31.02807,0.0057026,0.84966121,9.2952,11/30.0/2022,2000,g 10.0,4.0
# From MPEC 2022-QD9
C/2017 Y2 (PANSTARRS),h,11/05.0763/2020,128.4339,66.0085,147.9350,1.001370,4.632846,2000,15.0,4.0
# From MPC111770
P/2017 Y3 (Leonard),e,27.5628,153.8536,67.5860,9.823463,0.0320116,0.86948532,56.1895,11/30.0/2022,2000,g 16.5,4.0
# From MPEC 2021-P47
C/2018 A3 (ATLAS),e,139.5369,194.2929,86.3506,371.8974,0.0001374,0.99118551,0.0000,01/11.0646/2019,2000,g  8.5,4.0
# From MPC114601
C/2018 A4 (PANSTARRS),e,3.1504,97.5847,355.9581,12.18393,0.0231752,0.80379192,38.3708,11/30.0/2022,2000,g 14.0,4.0
# From MPC109147
P/2018 A5 (PANSTARRS),e,23.6068,87.7937,359.4876,5.628832,0.0738034,0.52329616,139.7087,11/30.0/2022,2000,g 15.0,4.0
# From MPEC 2022-ST7
C/2018 A6 (Gibbs),e,77.0583,340.3819,264.3578,15.05880,0.0168662,0.79960297,20.8681,11/30.0/2022,2000,g  9.0,4.0
# From MPEC 2022-O08
C/2018 B1 (Lemmon),e,162.4179,133.1922,68.3977,4132,0.0000037,0.99875844,0.0000,03/27.4645/2018,2000,g  9.0,4.0
# From MPC114601
P/2018 C1 (Lemmon-Read),e,5.1120,270.3371,235.6974,5.652701,0.0733365,0.53203391,127.6438,11/30.0/2022,2000,g 13.5,4.0
# From MPC114601
C/2018 C2 (Lemmon),h,05/31.3650/2018,34.4633,91.2446,134.0226,1.000020,1.960812,2000,13.0,4.0
# From MPEC 2022-M88
C/2018 DO4 (Lemmon),e,160.4428,251.4352,176.2980,25.35340,0.0077206,0.90483519,9.2723,11/30.0/2022,2000,g 11.0,4.0
# From MPC114602
C/2018 E1 (ATLAS),e,72.5051,146.8407,299.2893,53.85906,0.0024935,0.95000501,4.2064,11/30.0/2022,2000,g 10.5,4.0
# From MPEC 2022-N37
C/2018 E2 (Barros),e,97.6214,67.1520,277.4447,2762,0.0000068,0.99858069,0.0000,12/23.6300/2017,2000,g 10.5,4.0
# From MPC114602
C/2018 EN4 (NEOWISE),e,81.9319,136.1284,35.0272,17.92354,0.0129888,0.91847852,21.3241,11/30.0/2022,2000,g 15.0,4.0
# From MPC114602
C/2018 EF9 (Lemmon),e,84.6207,172.5562,72.6319,457.5588,0.0001007,0.99658737,0.0000,05/21.3147/2018,2000,g 18.0,2.0
# From MPEC 2021-R75
C/2018 F1 (Grauer),e,46.0785,177.2759,71.5917,243.1194,0.0002600,0.98767305,0.0000,12/12.1313/2018,2000,g 11.5,4.0
# From MPEC 2021-W31
C/2018 F4 (PANSTARRS),e,78.0843,26.5156,263.2224,21641,0.0000003,0.99984090,0.0000,12/03.3177/2019,2000,g 11.0,6.0
# From MPEC 2021-Y10
C/2018 F4-A,e,78.0845,26.5158,263.2192,16305,0.0000005,0.99978883,0.0000,12/03.3060/2019,2000,g 11.0,6.0
# From MPEC 2021-W31
C/2018 F4-B,e,78.0852,26.5154,263.2043,29949,0.0000002,0.99988504,0.0000,12/03.2422/2019,2000,g 11.0,6.0
# From MPC114602
P/2018 H2 (PANSTARRS),e,7.4174,67.9204,120.0595,4.383363,0.1073972,0.54220392,190.8289,11/30.0/2022,2000,g 16.6,2.0
# From MPC114602
C/2018 K1 (Weiland),e,164.1885,260.1731,325.2402,30.20873,0.0059362,0.93771955,10.0749,11/30.0/2022,2000,g 14.9,4.0
# From MPEC 2021-R75
C/2018 KJ3 (Lemmon),e,136.6776,91.6486,217.6700,955.1932,0.0000334,0.99620228,0.0000,09/09.9820/2019,2000,g 12.2,2.0
# From MPC114602
P/2018 L1 (PANSTARRS),e,10.5805,268.6170,18.0380,3.653571,0.1411327,0.48189834,208.7649,11/30.0/2022,2000,g 15.0,4.0
# From MPEC 2021-P47
C/2018 L2 (ATLAS),e,67.2681,243.0037,56.3239,258.4620,0.0002372,0.99336128,0.0000,12/02.2826/2018,2000,g 10.0,4.0
# From MPC114603
P/2018 L4 (PANSTARRS),e,26.6195,145.1701,140.6205,4.945160,0.0896259,0.65915912,141.8859,11/30.0/2022,2000,g 17.5,4.0
# From MPC119996
P/2018 L5 (Leonard),e,2.2087,219.0461,93.9554,3.628873,0.1425760,0.36429869,238.0128,11/30.0/2022,2000,g 14.5,4.0
# From MPC117070
C/2018 M1 (Catalina),e,37.2886,339.4158,14.2363,21.49219,0.0098920,0.93928175,15.8582,11/30.0/2022,2000,g 15.5,4.0
# From MPEC 2022-M21
C/2018 N1 (NEOWISE),e,159.4151,292.5274,354.7281,506.2578,0.0000865,0.99741331,0.0000,08/02.7565/2018,2000,g 15.5,4.0
# From MPEC 2022-L66
C/2018 N2 (ASASSN),h,11/11.3001/2019,77.5525,25.2054,24.4741,1.000840,3.127305,2000,6.0,4.0
# From MPC114603
C/2018 O1 (ATLAS),e,154.0044,87.7717,162.7028,28.08507,0.0066220,0.94450253,10.2679,11/30.0/2022,2000,g 17.0,4.0
# From MPEC 2022-M21
P/2018 P3 (PANSTARRS),e,8.9143,59.1592,305.9770,3.004385,0.1892652,0.41711720,285.8665,11/30.0/2022,2000,g 14.5,4.0
# From MPC114603
P/2018 P4 (PANSTARRS),e,23.1092,353.0628,8.4150,6.683664,0.0570403,0.45061606,84.5287,11/30.0/2022,2000,g 12.0,4.0
# From MPEC 2021-P47
C/2018 P5 (PANSTARRS),e,7.2472,216.2013,131.9483,12.84228,0.0214161,0.64292012,29.3596,11/30.0/2022,2000,g 11.0,4.0
# From MPC118841
C/2018 R3 (Lemmon),e,69.7174,324.6012,112.7459,1562,0.0000160,0.99917784,0.0000,06/07.7213/2019,2000,g  9.5,4.0
# From MPEC 2022-M21
C/2018 R4 (Fuls),e,11.6703,298.5286,345.3228,346.6499,0.0001527,0.99502986,0.0000,03/02.7028/2018,2000,g 14.0,4.0
# From MPC114603
C/2018 R5 (Lemmon),e,103.7488,171.1159,178.1891,22.88509,0.0090028,0.84131960,12.7815,11/30.0/2022,2000,g 11.5,4.0
# From MPEC 2022-QC6
C/2018 S2 (TESS),e,64.1584,85.1026,290.7992,14.35854,0.0181150,0.61879289,26.8891,11/30.0/2022,2000,g  7.5,4.0
